{
  "type": "FeatureCollection",
  "properties": {
    "generated_at": "2026-10-08T06:12:09.754821Z",
    "total_pins": 2
  },
  "features": [
    {
      "type": "Feature",
      "geometry": {
        "type": "Point",
        "coordinates": [
          -74.0060152,
          40.7127281
        ]
      },
      "properties": {
        "post_uri": "at://did:plc:3lbaghrivke5ycnq352hcuso/app.bsky.feed.post/3mxdseajo3226",
        "handle": "technicallyowen.bsky.social",
        "text": "Looks like they are currently on display else where in New York if you get a chance to visit www.nypl.org/about/locati...",
        "created_at": "2026-10-08T06:09:49.802Z",
        "source": "https://bsky.app/profile/technicallyowen.bsky.social/post/3mxdseajo3226",
        "mapped_location": "New York, United States",
        "precision_level": "state",
        "location_text": "New York",
        "confidence": 0.95
      }
    },
    {
      "type": "Feature",
      "geometry": {
        "type": "Point",
        "coordinates": [
          -74.0060152,
          40.7127281
        ]
      },
      "properties": {
        "post_uri": "at://did:plc:llyib2qojznvswvelaiakjfp/app.bsky.feed.post/3mxdsf5u2bh2g",
        "handle": "market-ocean-en.bsky.social",
        "text": "This helps explain why moves that begin in New York are often felt across Asian trading hours within a single night. Thursday's session shows how quickly markets in another time zone can reprice a document describing a meeting held weeks earlier.",
        "created_at": "2026-10-08T06:10:21.814560Z",
        "source": "https://bsky.app/profile/market-ocean-en.bsky.social/post/3mxdsf5u2bh2g",
        "mapped_location": "New York, United States",
        "precision_level": "state",
        "location_text": "New York",
        "confidence": 0.95
      }
    }
  ]
}