{
  "type": "FeatureCollection",
  "properties": {
    "generated_at": "2026-10-09T08:21:03.295169Z",
    "total_pins": 8
  },
  "features": [
    {
      "type": "Feature",
      "geometry": {
        "type": "Point",
        "coordinates": [
          -73.923,
          40.779
        ]
      },
      "properties": {
        "post_uri": "at://did:plc:gcn2c7a6hlcriukqv4buzai5/app.bsky.feed.post/3mxg56l6vs22z",
        "handle": "tvguy9605.bsky.social",
        "text": "I believe they were in Astoria Park tonight on Shore Rd. 3 men standing outside 3 unmarked black SUV's. They were armed & wearing black hoodies. It looked like they had vests underneath. No ID of any kind. They were watching everyone passing by. Most people not paying attention completely unaware.",
        "created_at": "2026-10-09T04:28:51.937Z",
        "source": "https://bsky.app/profile/tvguy9605.bsky.social/post/3mxg56l6vs22z",
        "mapped_location": "Astoria Park, Queens, Queens County, New York, United States",
        "precision_level": "address",
        "location_text": "Astoria Park",
        "confidence": 0.9
      }
    },
    {
      "type": "Feature",
      "geometry": {
        "type": "Point",
        "coordinates": [
          -74.0060152,
          40.7127281
        ]
      },
      "properties": {
        "post_uri": "at://did:plc:y4fcl5xq2wixvslfzprgwx27/app.bsky.feed.post/3mxg72wvnah2k",
        "handle": "qncnews.bsky.social",
        "text": "Mamdani Decries ‘Unconscionable’ ICE Gunfire After Agent Wounds Man in NYC\n\nMayor Zohran Mamdani condemned an ICE shooting in New York that wounded a Dominican man, saying he called President Trump to demand a halt to enforcement.",
        "created_at": "2026-10-09T05:02:37Z",
        "source": "https://bsky.app/profile/qncnews.bsky.social/post/3mxg72wvnah2k",
        "mapped_location": "New York, United States",
        "precision_level": "state",
        "location_text": "New York",
        "confidence": 1.0
      }
    },
    {
      "type": "Feature",
      "geometry": {
        "type": "Point",
        "coordinates": [
          -74.0060152,
          40.7127281
        ]
      },
      "properties": {
        "post_uri": "at://did:plc:fhruylcs3yoa7ei5em46xnts/app.bsky.feed.post/3mxg74xko2s2p",
        "handle": "littlegeeo.bsky.social",
        "text": "Spider-Man: Far From Home Alone 2: Lost in New York",
        "created_at": "2026-10-09T05:03:45.279Z",
        "source": "https://bsky.app/profile/littlegeeo.bsky.social/post/3mxg74xko2s2p",
        "mapped_location": "New York, United States",
        "precision_level": "state",
        "location_text": "New York",
        "confidence": 0.95
      }
    },
    {
      "type": "Feature",
      "geometry": {
        "type": "Point",
        "coordinates": [
          -74.0060152,
          40.7127281
        ]
      },
      "properties": {
        "post_uri": "at://did:plc:lwooy533uevkdp5l7qsarrwe/app.bsky.feed.post/3mxg76jcz5c27",
        "handle": "battcommader.bsky.social",
        "text": "apnews.com/article/new-... officer shoots a man while making an arrest in New York, officials say",
        "created_at": "2026-10-09T05:04:37.457Z",
        "source": "https://bsky.app/profile/battcommader.bsky.social/post/3mxg76jcz5c27",
        "mapped_location": "New York, United States",
        "precision_level": "state",
        "location_text": "New York",
        "confidence": 0.95
      }
    },
    {
      "type": "Feature",
      "geometry": {
        "type": "Point",
        "coordinates": [
          -74.0060152,
          40.7127281
        ]
      },
      "properties": {
        "post_uri": "at://did:plc:4hhxfexig2densmqetl2qhb7/app.bsky.feed.post/3mxgb76he2s2m",
        "handle": "normaforhumanity.bsky.social",
        "text": "We are so far. Tomorrow Lucas Museum. Excited to see that with her.  I don’t know if I had told you when I was in NJ she took me to  9/11 museum in New York sad. 🙁",
        "created_at": "2026-10-09T05:40:47.104Z",
        "source": "https://bsky.app/profile/normaforhumanity.bsky.social/post/3mxgb76he2s2m",
        "mapped_location": "New York, United States",
        "precision_level": "state",
        "location_text": "New York",
        "confidence": 1.0
      }
    },
    {
      "type": "Feature",
      "geometry": {
        "type": "Point",
        "coordinates": [
          -74.0060152,
          40.7127281
        ]
      },
      "properties": {
        "post_uri": "at://did:plc:bw476ibzymiv6u7qbwdtewjh/app.bsky.feed.post/3mxghhlzo4c2p",
        "handle": "franz-wien.bsky.social",
        "text": "The Trump Nazis' plan is working. They're stirring up unrest in New York!",
        "created_at": "2026-10-09T07:32:52.221Z",
        "source": "https://bsky.app/profile/franz-wien.bsky.social/post/3mxghhlzo4c2p",
        "mapped_location": "New York, United States",
        "precision_level": "state",
        "location_text": "New York",
        "confidence": 0.95
      }
    },
    {
      "type": "Feature",
      "geometry": {
        "type": "Point",
        "coordinates": [
          -73.9440833,
          40.5779176
        ]
      },
      "properties": {
        "post_uri": "at://did:plc:ygqeqom37ktnwbx3u2rgncfs/app.bsky.feed.post/3mxgisybzac2x",
        "handle": "invisiblefoodtruck.bsky.social",
        "text": "What's cracking? We have set up shop at 15th and Highland in Manhattan Beach! Try our new hot turkey dumplings!",
        "created_at": "2026-10-09T07:57:02.45346300Z",
        "source": "https://bsky.app/profile/invisiblefoodtruck.bsky.social/post/3mxgisybzac2x",
        "mapped_location": "Manhattan Beach, Brooklyn, Kings County, New York, 11235, United States",
        "precision_level": "city",
        "location_text": "Manhattan Beach",
        "confidence": 0.9
      }
    },
    {
      "type": "Feature",
      "geometry": {
        "type": "Point",
        "coordinates": [
          -74.0060152,
          40.7127281
        ]
      },
      "properties": {
        "post_uri": "at://did:plc:quzts3ldmxdiut5ckqqm3r6d/app.bsky.feed.post/3mxgiuvkcor2r",
        "handle": "v-u-this.bsky.social",
        "text": "Mum in Sydney, the client in New York, the boss still asleep. Every clock on one big screen, labelled how you like, from your phone. vuthis.com, free, no app.\n\n#RemoteWork #SmartTV #DigitalSignage #WebDev",
        "created_at": "2026-10-09T07:58:11.971Z",
        "source": "https://bsky.app/profile/v-u-this.bsky.social/post/3mxgiuvkcor2r",
        "mapped_location": "New York, United States",
        "precision_level": "state",
        "location_text": "New York",
        "confidence": 1.0
      }
    }
  ]
}