{
  "type": "FeatureCollection",
  "properties": {
    "generated_at": "2026-10-07T03:10:52.023931Z",
    "total_pins": 21
  },
  "features": [
    {
      "type": "Feature",
      "geometry": {
        "type": "Point",
        "coordinates": [
          -74.0060152,
          40.7127281
        ]
      },
      "properties": {
        "post_uri": "at://did:plc:qsfhti5gf25ekrlyayrmrswp/app.bsky.feed.post/3mxaumxoqw22e",
        "handle": "mugennoken.bsky.social",
        "text": "The one issue with that and how it’s portrayed here I’d say is like \n\nhe couldn’t live in New York City without money, and there’s no sign how on earth he affords all the things we actively see him have or buy when he left NWH with absolutely nothing",
        "created_at": "2026-10-07T02:12:32.433Z",
        "source": "https://bsky.app/profile/mugennoken.bsky.social/post/3mxaumxoqw22e",
        "mapped_location": "New York, United States",
        "precision_level": "state",
        "location_text": "New York City",
        "confidence": 0.95
      }
    },
    {
      "type": "Feature",
      "geometry": {
        "type": "Point",
        "coordinates": [
          -74.0060152,
          40.7127281
        ]
      },
      "properties": {
        "post_uri": "at://did:plc:ajb5ifur4nhvcpd5tdppnpe6/app.bsky.feed.post/3mxauvhxbp226",
        "handle": "seanphillips.bsky.social",
        "text": "In New York for NYCC. Hope to see you there!",
        "created_at": "2026-10-07T02:17:17.923Z",
        "source": "https://bsky.app/profile/seanphillips.bsky.social/post/3mxauvhxbp226",
        "mapped_location": "New York, United States",
        "precision_level": "state",
        "location_text": "New York",
        "confidence": 0.95
      }
    },
    {
      "type": "Feature",
      "geometry": {
        "type": "Point",
        "coordinates": [
          -74.0060152,
          40.7127281
        ]
      },
      "properties": {
        "post_uri": "at://did:plc:63tykxeel2fnec6pq4bndeuq/app.bsky.feed.post/3mxavbu4rfu26",
        "handle": "usanewspulse.bsky.social",
        "text": "Jaguar unveils new electric car – two years after rebrand withdrawn | UK news\n\nJaguar has unveiled its new electric car - two years after the company's controversial rebrand, and 12 months after a major cyber attack halted production. The new Type 01 model, revealed at an event in New York on…",
        "created_at": "2026-10-07T02:24:13Z",
        "source": "https://bsky.app/profile/usanewspulse.bsky.social/post/3mxavbu4rfu26",
        "mapped_location": "New York, United States",
        "precision_level": "state",
        "location_text": "New York",
        "confidence": 1.0
      }
    },
    {
      "type": "Feature",
      "geometry": {
        "type": "Point",
        "coordinates": [
          -74.0060152,
          40.7127281
        ]
      },
      "properties": {
        "post_uri": "at://did:plc:dgeaio6k5oz6biissbvvcswe/app.bsky.feed.post/3mxavbvps662m",
        "handle": "usdailybrie.bsky.social",
        "text": "Jaguar unveils new electric car – two years after rebrand withdrawn | UK news\n\nJaguar has unveiled its new electric car - two years after the company's controversial rebrand, and 12 months after a major cyber attack halted production. The new Type 01 model, revealed at an event in New York on…",
        "created_at": "2026-10-07T02:24:14Z",
        "source": "https://bsky.app/profile/usdailybrie.bsky.social/post/3mxavbvps662m",
        "mapped_location": "New York, United States",
        "precision_level": "state",
        "location_text": "New York",
        "confidence": 1.0
      }
    },
    {
      "type": "Feature",
      "geometry": {
        "type": "Point",
        "coordinates": [
          -74.0060152,
          40.7127281
        ]
      },
      "properties": {
        "post_uri": "at://did:plc:qqwajpoajpdtfl7wlkklv2ig/app.bsky.feed.post/3mxavbxh6u62t",
        "handle": "americannewsdesk.bsky.social",
        "text": "Jaguar unveils new electric car – two years after rebrand withdrawn | UK news\n\nJaguar has unveiled its new electric car - two years after the company's controversial rebrand, and 12 months after a major cyber attack halted production. The new Type 01 model, revealed at an event in New York on…",
        "created_at": "2026-10-07T02:24:16Z",
        "source": "https://bsky.app/profile/americannewsdesk.bsky.social/post/3mxavbxh6u62t",
        "mapped_location": "New York, United States",
        "precision_level": "state",
        "location_text": "New York",
        "confidence": 1.0
      }
    },
    {
      "type": "Feature",
      "geometry": {
        "type": "Point",
        "coordinates": [
          -74.0060152,
          40.7127281
        ]
      },
      "properties": {
        "post_uri": "at://did:plc:hb5dup6slomgs7gficut6cmc/app.bsky.feed.post/3mxawgrjqtl26",
        "handle": "tmastreet.bsky.social",
        "text": "Utilities Lead S&P 500 to Record Highs as Small Caps Dip – American equity markets displayed a marked structural bifurcation on Tuesday, October 6, 2026, as the S&P 500 climbed 0.72% to reach 7,830.08 by mid-day trading in New York, maintaining a strong trajectory towards a fresh record close. Howev",
        "created_at": "2026-10-07T02:44:50Z",
        "source": "https://bsky.app/profile/tmastreet.bsky.social/post/3mxawgrjqtl26",
        "mapped_location": "New York, United States",
        "precision_level": "state",
        "location_text": "New York",
        "confidence": 0.95
      }
    },
    {
      "type": "Feature",
      "geometry": {
        "type": "Point",
        "coordinates": [
          -74.0060152,
          40.7127281
        ]
      },
      "properties": {
        "post_uri": "at://did:plc:bgt62gzl3y5ke7b45xi5vkvu/app.bsky.feed.post/3mxawhojagf2n",
        "handle": "bsfavourite.bsky.social",
        "text": "GP: Socialist Running for Congress in New York Wants Democrats to Pass a ‘Trans Bill of Rights’ if They Win Midterms (VIDEO) #Socialism",
        "created_at": "2026-10-07T02:45:22Z",
        "source": "https://bsky.app/profile/bsfavourite.bsky.social/post/3mxawhojagf2n",
        "mapped_location": "New York, United States",
        "precision_level": "state",
        "location_text": "New York",
        "confidence": 0.95
      }
    },
    {
      "type": "Feature",
      "geometry": {
        "type": "Point",
        "coordinates": [
          -74.0060152,
          40.7127281
        ]
      },
      "properties": {
        "post_uri": "at://did:plc:dtg2oeh4jj3lmbcxyxl6nm34/app.bsky.feed.post/3mxawkhm7ro2x",
        "handle": "some-news.bsky.social",
        "text": "Latest model is launching in New York to target rich US buyers – and is more than 5.2 metres long and 2 metres wide",
        "created_at": "2026-10-07T02:46:55.858069+00:00",
        "source": "https://bsky.app/profile/some-news.bsky.social/post/3mxawkhm7ro2x",
        "mapped_location": "New York, United States",
        "precision_level": "state",
        "location_text": "New York",
        "confidence": 1.0
      }
    },
    {
      "type": "Feature",
      "geometry": {
        "type": "Point",
        "coordinates": [
          -73.9843694,
          40.7430536
        ]
      },
      "properties": {
        "post_uri": "at://did:plc:fs6e4nxd3n6biykcz6itlpxy/app.bsky.feed.post/3mxawmv7j4s2p",
        "handle": "ctphil.bsky.social",
        "text": "D'Agostino's 34th st. in NYC. Little old Park Avenue South ladies would open the fucking 1lb boxes because they didn't need a pound.",
        "created_at": "2026-10-07T02:48:17.319Z",
        "source": "https://bsky.app/profile/ctphil.bsky.social/post/3mxawmv7j4s2p",
        "mapped_location": "Park Avenue South, Rose Hill, Manhattan Community Board 5, Manhattan, New York County, New York, 10010, United States",
        "precision_level": "city",
        "location_text": "Park Avenue South",
        "confidence": 0.95
      }
    },
    {
      "type": "Feature",
      "geometry": {
        "type": "Point",
        "coordinates": [
          -74.0060152,
          40.7127281
        ]
      },
      "properties": {
        "post_uri": "at://did:plc:crfe2bkfieme6ls3iuj4a3cs/app.bsky.feed.post/3mxawsh3s3w2y",
        "handle": "the-gatewaypundit.bsky.social",
        "text": "Socialist Running for Congress in New York Wants Democrats to Pass a ‘Trans Bill of Rights’ if They Win Midterms (VIDEO)\n",
        "created_at": "2026-10-07T02:51:23+00:00",
        "source": "https://bsky.app/profile/the-gatewaypundit.bsky.social/post/3mxawsh3s3w2y",
        "mapped_location": "New York, United States",
        "precision_level": "state",
        "location_text": "New York",
        "confidence": 0.95
      }
    },
    {
      "type": "Feature",
      "geometry": {
        "type": "Point",
        "coordinates": [
          -74.0060152,
          40.7127281
        ]
      },
      "properties": {
        "post_uri": "at://did:plc:ghrptav4bpyctziyada6hids/app.bsky.feed.post/3mxawsl5op22t",
        "handle": "themadcentrist.com",
        "text": "Unless, of course, they are in New York with the Rape Law loop hole.\n\nWhich is despicable, disgusting, and inexcusable. \n\nLegislation has been introduced just about every single year to close this loop hole, but for some ungodly reason it never passes.\n\nNY, get it done.",
        "created_at": "2026-10-07T02:51:28.100Z",
        "source": "https://bsky.app/profile/themadcentrist.com/post/3mxawsl5op22t",
        "mapped_location": "New York, United States",
        "precision_level": "state",
        "location_text": "New York",
        "confidence": 0.95
      }
    },
    {
      "type": "Feature",
      "geometry": {
        "type": "Point",
        "coordinates": [
          -74.0060152,
          40.7127281
        ]
      },
      "properties": {
        "post_uri": "at://did:plc:3pcnghkif2l2bf3g3hx5spsu/app.bsky.feed.post/3mxawwyxueu2r",
        "handle": "babyshoes4cash.com",
        "text": "As for Tom, the fct that hye \"had some woman in New york\": was really less surprising than that he had been depressed by a book. Something was making him nubble at the edge of stale ideas as if his studyr phsycial egotism not longer nouished his peremptyory heart",
        "created_at": "2026-10-07T02:53:56.419Z",
        "source": "https://bsky.app/profile/babyshoes4cash.com/post/3mxawwyxueu2r",
        "mapped_location": "New York, United States",
        "precision_level": "state",
        "location_text": "New york",
        "confidence": 0.95
      }
    },
    {
      "type": "Feature",
      "geometry": {
        "type": "Point",
        "coordinates": [
          -74.0060152,
          40.7127281
        ]
      },
      "properties": {
        "post_uri": "at://did:plc:fea4ibvgynxlr7b72c4b3azq/app.bsky.feed.post/3mxax67nm722p",
        "handle": "audubonballroom.bsky.social",
        "text": "2008, the National Museum of the American Indian opened a two-venue retrospective of Scholder's work titled Indian/Not Indian: one in Washington, DC and the other in New York. On October 4, 2015, the Denver Art Museum opened a major traveling exhibition of Scholder's \"Indian\" series titled,\n\n(4/7)",
        "created_at": "2026-10-07T02:57:58.693Z",
        "source": "https://bsky.app/profile/audubonballroom.bsky.social/post/3mxax67nm722p",
        "mapped_location": "New York, United States",
        "precision_level": "state",
        "location_text": "New York",
        "confidence": 1.0
      }
    },
    {
      "type": "Feature",
      "geometry": {
        "type": "Point",
        "coordinates": [
          -74.0060152,
          40.7127281
        ]
      },
      "properties": {
        "post_uri": "at://did:plc:v4c4uuueipj63vdxmlhhezz6/app.bsky.feed.post/3mxaxbuenok2d",
        "handle": "damop.bsky.social",
        "text": "A Democratic Socialist in New York City is reminding America that government can still be about caring for people, strengthening communities, & building cities where everyone has a chance to thrive. When we put people before profit, we can create a future worth believing in.\nyoutu.be/6gZ3w7zRv0w?...",
        "created_at": "2026-10-07T03:00:01.083Z",
        "source": "https://bsky.app/profile/damop.bsky.social/post/3mxaxbuenok2d",
        "mapped_location": "New York, United States",
        "precision_level": "state",
        "location_text": "New York City",
        "confidence": 1.0
      }
    },
    {
      "type": "Feature",
      "geometry": {
        "type": "Point",
        "coordinates": [
          -74.0060152,
          40.7127281
        ]
      },
      "properties": {
        "post_uri": "at://did:plc:fea4ibvgynxlr7b72c4b3azq/app.bsky.feed.post/3mxaxgpms5k2p",
        "handle": "audubonballroom.bsky.social",
        "text": "a survey at the National Museum of the American Indian George Gustav Heye Center in New York.\n\nIn June 2022, Scholder's triptych \"Possession on the Beach,\" previously shown during \"Indian/Not Indian\" exhibition (2008–09) at the Smithsonian's National Museum of the American Indian,\n\n(6/7)",
        "created_at": "2026-10-07T03:02:43.879Z",
        "source": "https://bsky.app/profile/audubonballroom.bsky.social/post/3mxaxgpms5k2p",
        "mapped_location": "New York, United States",
        "precision_level": "state",
        "location_text": "New York",
        "confidence": 1.0
      }
    },
    {
      "type": "Feature",
      "geometry": {
        "type": "Point",
        "coordinates": [
          -74.0060152,
          40.7127281
        ]
      },
      "properties": {
        "post_uri": "at://did:plc:obfncprwvwczytprkmdfjtdq/app.bsky.feed.post/3mxaxhfxyuk2y",
        "handle": "carynrose.bsky.social",
        "text": "when I tried to get him to see what he was doing, saying 'yeah, i just walked into a bar randomly on a tuesday night\" & then he changed to \"I bet you were there in 1984 too\" then I had to explain I did not live here...but I was seeing them in New York City. WHY DO I HAVE TO PROVE MY BONA FIDES",
        "created_at": "2026-10-07T03:03:07.093Z",
        "source": "https://bsky.app/profile/carynrose.bsky.social/post/3mxaxhfxyuk2y",
        "mapped_location": "New York, United States",
        "precision_level": "state",
        "location_text": "New York City",
        "confidence": 0.95
      }
    },
    {
      "type": "Feature",
      "geometry": {
        "type": "Point",
        "coordinates": [
          -73.9633825,
          40.7794396
        ]
      },
      "properties": {
        "post_uri": "at://did:plc:fea4ibvgynxlr7b72c4b3azq/app.bsky.feed.post/3mxaxhg6ppk2p",
        "handle": "audubonballroom.bsky.social",
        "text": "is exhibited in the American Wing at The Metropolitan Museum of Art in New York City.\n\nSource: en.wikipedia.org/wiki/Fritz_S...\n\n(7/7)",
        "created_at": "2026-10-07T03:03:07.534Z",
        "source": "https://bsky.app/profile/audubonballroom.bsky.social/post/3mxaxhg6ppk2p",
        "mapped_location": "The Metropolitan Museum of Art, 1000, 5th Avenue, Upper East Side, Manhattan Community Board 8, Manhattan, New York County, New York, 10075, United States",
        "precision_level": "city",
        "location_text": "The Metropolitan Museum of Art",
        "confidence": 1.0,
        "other_locations": "New York City"
      }
    },
    {
      "type": "Feature",
      "geometry": {
        "type": "Point",
        "coordinates": [
          -74.0060152,
          40.7127281
        ]
      },
      "properties": {
        "post_uri": "at://did:plc:fea4ibvgynxlr7b72c4b3azq/app.bsky.feed.post/3mxaxhg6ppk2p",
        "handle": "audubonballroom.bsky.social",
        "text": "is exhibited in the American Wing at The Metropolitan Museum of Art in New York City.\n\nSource: en.wikipedia.org/wiki/Fritz_S...\n\n(7/7)",
        "created_at": "2026-10-07T03:03:07.534Z",
        "source": "https://bsky.app/profile/audubonballroom.bsky.social/post/3mxaxhg6ppk2p",
        "mapped_location": "New York, United States",
        "precision_level": "state",
        "location_text": "New York City",
        "confidence": 1.0,
        "other_locations": "The Metropolitan Museum of Art"
      }
    },
    {
      "type": "Feature",
      "geometry": {
        "type": "Point",
        "coordinates": [
          -74.0060152,
          40.7127281
        ]
      },
      "properties": {
        "post_uri": "at://did:plc:saw7552avddb7fp6gutuztqu/app.bsky.feed.post/3mxaxjgkdw22b",
        "handle": "datafire.social.pcpulse.us",
        "text": "Jaguar launches 5.2‑metre Type 01 electric car in New York, priced at £130,000, targeting affluent US buyers – its size exceeds UK parking limits.",
        "created_at": "2026-10-07T03:04:14.946271+00:00",
        "source": "https://bsky.app/profile/datafire.social.pcpulse.us/post/3mxaxjgkdw22b",
        "mapped_location": "New York, United States",
        "precision_level": "state",
        "location_text": "New York",
        "confidence": 1.0
      }
    },
    {
      "type": "Feature",
      "geometry": {
        "type": "Point",
        "coordinates": [
          -74.0060152,
          40.7127281
        ]
      },
      "properties": {
        "post_uri": "at://did:plc:r67bhj2dczcsvgp3gmx3d4gc/app.bsky.feed.post/3mxaxlleml22h",
        "handle": "taebenthekeaben.bsky.social",
        "text": "I live in New York.😀 Sadly, he's not real.😔 All I could do is draw.😌",
        "created_at": "2026-10-07T03:05:27.162Z",
        "source": "https://bsky.app/profile/taebenthekeaben.bsky.social/post/3mxaxlleml22h",
        "mapped_location": "New York, United States",
        "precision_level": "state",
        "location_text": "New York",
        "confidence": 0.95
      }
    },
    {
      "type": "Feature",
      "geometry": {
        "type": "Point",
        "coordinates": [
          -74.0060152,
          40.7127281
        ]
      },
      "properties": {
        "post_uri": "at://did:plc:o3qpenufu2nso55okagrks57/app.bsky.feed.post/3mxaxpm2qts2b",
        "handle": "minimagicmenagerie.bsky.social",
        "text": "Yes. Please. This is in New York, East Harlem. Who is that perpetrator? \n\nwww.instagram.com/reel/DeKyS47...",
        "created_at": "2026-10-07T03:07:42.130Z",
        "source": "https://bsky.app/profile/minimagicmenagerie.bsky.social/post/3mxaxpm2qts2b",
        "mapped_location": "New York, United States",
        "precision_level": "state",
        "location_text": "New York",
        "confidence": 1.0
      }
    }
  ]
}